TDRS 3                  
1 19548U 88091B   18337.49948779 -.00000310  00000-0  00000+0 0  9996
2 19548  14.3965   2.6385 0037600 310.8343 236.2247  1.00279007 97760
HST                     
1 20580U 90037B   18337.64222222  .00000404  00000-0  13673-4 0  9990
2 20580  28.4700  74.8292 0002697 159.5478  60.0808 15.09138173371004
TDRS 5                  
1 21639U 91054B   18337.89223964  .00000075  00000-0  00000+0 0  9996
2 21639  14.6281  15.9360 0021257 338.1139 232.4171  1.00264081100108
TDRS 6                  
1 22314U 93003B   18338.04699729 -.00000304  00000-0  00000+0 0  9993
2 22314  14.2092  18.9699 0006179 298.3418  86.2380  1.00264488 94780
TDRS 7                  
1 23613U 95035B   18337.90251198 -.00000208  00000-0  00000-0 0  9995
2 23613  14.6334   9.6548 0027030 352.0212 120.5367  1.00267216 85650
ISS (ZARYA)             
1 25544U 98067A   18338.20250748  .00001600  00000-0  31516-4 0  9998
2 25544  51.6396 251.4641 0005143 112.2696  39.7679 15.54053511144959
LANDSAT 7               
1 25682U 99020A   18338.19421076  .00000002  00000-0  10381-4 0  9995
2 25682  98.1547  45.0439 0001718  81.8538 278.2870 14.57139889 44506
TERRA                   
1 25994U 99068A   18338.48387684 -.00000096  00000-0 -11222-4 0  9991
2 25994  98.2140  50.8451 0000545 117.5697 242.5578 14.57132374  8624
TDRS 8                  
1 26388U 00034A   18337.69335227 -.00000238  00000-0  00000-0 0  9997
2 26388   8.3567  51.5653 0012065 265.7936  93.9448  1.00276054 67583
TIMED                   
1 26998U 01055B   18338.45760384  .00000088  00000-0  13637-4 0  9995
2 26998  74.0717 329.8762 0002426 246.6672 113.4253 14.88067973921099
TDRS 9                  
1 27389U 02011A   18338.31164181 -.00000106  00000-0  00000+0 0  9998
2 27389   6.3420  73.0457 0021431 248.8728 211.1697  1.00273031 62846
AQUA                    
1 27424U 02022A   18337.96820873  .00000066  00000-0  24762-4 0  9997
2 27424  98.2129 276.6120 0000678 317.3431 118.3132 14.57112875882108
TDRS 10                 
1 27566U 02055A   18338.42727674  .00000088  00000-0  00000+0 0  9995
2 27566   5.9474  56.0828 0008807 235.3488 124.3686  1.00275305 58637
SORCE                   
1 27651U 03004A   18337.79789610  .00000036  00000-0  18029-4 0  9990
2 27651  39.9949 221.7690 0021198  29.6983 330.5005 14.88930848860497
AURA                    
1 28376U 04026A   18337.89066926  .00000065  00000-0  24530-4 0  9995
2 28376  98.2133 278.6916 0000752  89.3655 270.7630 14.57112940765145
SWIFT                   
1 28485U 04047A   18337.42122957  .00000774  00000-0  22647-4 0  9999
2 28485  20.5583 358.2852 0011306 148.4619 211.6493 15.04252870768741
THEMIS A                
1 30580U 07004A   18338.41235679 -.00000115  00000-0  00000+0 0  9994
2 30580   8.8055 128.1162 8325835 249.6315  12.3288  0.87835250 41770
THEMIS D                
1 30797U 07004D   18337.35553130 -.00000334  00000-0  00000+0 0  9994
2 30797   5.5395  81.8671 8551931 304.4131   3.2054  0.71867142 41953
THEMIS E                
1 30798U 07004E   18338.46172989 -.00000228  00000-0  00000+0 0  9999
2 30798   5.3683 107.1001 8380595 278.7686   6.0300  0.81322010 42008
AIM                     
1 31304U 07015A   18337.56777337  .00000605  00000-0  38490-4 0  9990
2 31304  97.9776 186.8832 0006462 110.8288 249.3634 15.12845615635711
FGRST (GLAST)           
1 33053U 08029A   18338.32069232  .00000452  00000-0  91098-5 0  9996
2 33053  25.5838 321.1482 0012374 355.0663   4.9749 15.11159201578350
WISE                    
1 36119U 09071A   18338.09219847  .00000606  00000-0  23932-4 0  9995
2 36119  97.3962   9.6224 0002028 179.6484 180.4758 15.29330434498000
TDRS 11                 
1 39070U 13004A   18337.19780619  .00000070  00000-0  00000-0 0  9997
2 39070   4.6583 329.0126 0003966 288.4075  71.4731  1.00276309 19098
TDRS 12                 
1 39504U 14004A   18337.84522859 -.00000279  00000-0  00000-0 0  9994
2 39504   5.3600 336.1723 0003233 276.3833  83.5000  1.00273620 16683
GPM-CORE                
1 39574U 14009C   18337.93457765  .00003254  00000-0  51551-4 0  9995
2 39574  65.0082 261.3691 0010971 282.7734  77.2186 15.55512926270696
MMS 1                   
1 40482U 15011A   18336.43933927 -.00000571  00000-0  00000+0 0  9990
2 40482   1.6453  39.2245 9062925  86.0452 359.5206  0.35512738  9555
MMS 2                   
1 40483U 15011B   18338.01580856 -.00000820  00000-0  00000+0 0  9993
2 40483   1.6577  41.8896 9059881  83.4389 201.0031  0.35513876  9530
MMS 3                   
1 40484U 15011C   18337.81429332 -.00000790  00000-0  00000+0 0  9998
2 40484   1.6577  41.8113 9059804  83.5080 175.2499  0.35513880  9543
MMS 4                   
1 40485U 15011D   18336.44003094 -.00000571  00000-0  00000+0 0  9997
2 40485   1.6451  39.2214 9062406  86.0537 359.5893  0.35512943  9538
TDRS 13                 
1 42915U 17047A   18337.85286375 -.00000298  00000-0  00000-0 0  9996
2 42915   6.4069 330.9298 0027283   5.8983 354.0783  1.00271605  4755
JPSS-1                  
1 43013U 17073A   18338.57969608 -.00000002  00000-0  19889-4 0  9994
2 43013  98.7421 274.4929 0001424  92.2554 267.8785 14.19553573 54082
